HAIYANG-2D              
1 48621U 21043A   26163.30414041 -.00000105  00000+0 -21886-4 0  9992
2 48621  65.9996 316.8574 0011401 269.5884  90.3878 13.83375734255876
2021-050D               
1 48843U 21050D   26163.27760156  .00005410  00000+0  23103-3 0  9998
2 48843  97.3340 239.4247 0004036 286.4628  73.6165 15.23282366278211
TYVAK-0173              
1 48892U 21059P   26163.20090921  .00001661  00000+0  21390-3 0  9990
2 48892  96.0086 240.7969 0010501  54.4865 305.7331 14.81875444267506
MANDRAKE 2 ABLE         
1 48907U 21059AE  26163.08991170  .00019843  00000+0  29947-3 0  9996
2 48907  97.7035 352.4867 0004898  24.4272 335.7212 15.54786782276333
MANDRAKE 2 BAKER        
1 48908U 21059AF  26163.16475283  .00028188  00000+0  35890-3 0  9994
2 48908  97.7004 355.4037 0003351  26.4419 333.7006 15.59312225276511
PACE-1                  
1 48909U 21059AG  26163.27585091  .00097533  00000+0  54684-3 0  9998
2 48909  97.6766   0.8663 0000775 300.2810  59.8379 15.79022279277022
YAM-3                   
1 48915U 21059AN  26163.28533415  .00012562  00000+0  23834-3 0  9991
2 48915  97.6991 349.9210 0005445  27.1649 332.9885 15.48450066276232
FARADAY_PHOENIX         
1 48924U 21059AX  26163.07908814  .00127469  00000+0  77317-3 0  9995
2 48924  97.6816   0.5452 0002687 328.1615  31.9487 15.77162162276859
DEMO8 (TENZING)         
1 48951U 21059CA  26163.09293263  .00018814  00000+0  28376-3 0  9996
2 48951  97.7026 356.1257 0006717  14.6950 345.4497 15.54803460276518
NAPA-2                  
1 48963U 21059CN  26163.25136573  .00335825  48086-4  76009-3 0  9998
2 48963  97.6689   1.7349 0002918 243.6052 116.4925 15.97574649277026
FENGYUN 3E              
1 49008U 21062A   26163.26901008  .00000405  00000+0  21129-3 0  9992
2 49008  98.7494 166.7316 0002792  93.5108 266.6388 14.19905212255881
ISS (NAUKA)             
1 49044U 21066A   26162.96453450  .00008067  00000+0  15344-3 0  9999
2 49044  51.6334 325.9414 0004931 175.6343 184.4689 15.49182446570768
STARLINK-3100           
1 49144U 21082Q   26163.10003264 -.00002490  00000+0 -20089-3 0  9997
2 49144  70.0002  56.4058 0003157 270.2152  89.8645 14.98337429260127
CUTE                    
1 49263U 21088D   26163.22339317  .00188504  15266-4  58087-3 0  9992
2 49263  97.4165 262.0421 0007853 237.6294 122.4220 15.91737915261764
2021-091B               
1 49316U 21091B   26163.24971735  .00002510  00000+0  12460-3 0  9995
2 49316  97.4476 350.9000 0014883  60.9392 299.3331 15.18529295258239
SDGSAT 1                
1 49387U 21100A   26163.29321388  .00002550  00000+0  12175-3 0  9999
2 49387  97.2643 210.4245 0006744 320.6749  39.3996 15.19903517255174
TEIKYOSAT-4 (OORURI)    
1 49396U 21102B   26163.08269150  .00001720  00000+0  11105-3 0  9996
2 49396  97.3672 192.7646 0010801 316.5940  43.4438 15.09490953251953
Z-SAT                   
1 49399U 21102E   26163.25492082  .00004217  00000+0  20875-3 0  9998
2 49399  97.3331 198.7275 0014864 264.0038  95.9502 15.18227284252691
HIBARI                  
1 49400U 21102F   26163.10623315  .00009356  00000+0  30831-3 0  9992
2 49400  97.3245 209.0673 0010849 210.1983 149.8634 15.31626124253413
KOSEN-1                 
1 49402U 21102H   26163.09516589  .00006510  00000+0  24961-3 0  9992
2 49402  97.3194 205.3513 0012672 219.4221 140.6097 15.26764823253249
GLOBAL-14               
1 49469U 21106A   26163.12605870  .00025484  00000+0  43921-3 0  9993
2 49469  42.0056 321.1536 0016604 343.9678  16.0639 15.50352851257340
GAOFEN-3 02             
1 49495U 21109A   26163.26183296  .00000186  00000+0  69764-4 0  9999
2 49495  98.4091 171.4285 0003263  29.2835 330.8537 14.42216953239601
GLOBAL-12               
1 49772U 21115BA  26163.05528714  .00031244  00000+0  49303-3 0  9994
2 49772  53.1955  69.2105 0003377  59.2275 300.9069 15.53268584255109
GLOBAL-13               
1 49773U 21115BB  26163.07717324  .00018500  00000+0  38295-3 0  9992
2 49773  53.1976  78.8751 0004105  98.3212 261.8261 15.45847046254971
GLOBAL-17               
1 49949U 21120A   26163.06972524  .00026879  00000+0  43707-3 0  9999
2 49949  41.9943  79.7812 0014937 223.5681 136.3984 15.51988435254107
GLOBAL-16               
1 49950U 21120B   26163.07632426  .00023428  00000+0  41126-3 0  9996
2 49950  41.9944  83.3781 0012775 215.8466 144.1521 15.49934386254050
XW-3 (CAS-9)            
1 50466U 21131B   26163.26468021  .00000401  00000+0  13761-3 0  9991
2 50466  98.4974 255.6807 0005289 107.7226 252.4541 14.41352915234407
ION SCV-004             
1 50993U 22002K   26163.26556667  .00005335  00000+0  18387-3 0  9998
2 50993  97.2844 221.0164 0007704  24.9373 335.2239 15.30404636244542
ETV-A1                  
1 51060U 22002CE  26163.27234694  .00011693  00000+0  28937-3 0  9994
2 51060  97.2887 229.5917 0005086  21.3601 338.7857 15.40581170245084
BRO-5                   
1 51061U 22002CF  26163.27109749  .00030003  00000+0  59245-3 0  9999
2 51061  97.3006 236.8970 0004034 353.5756   6.5441 15.47101089245490
