OBJECT_NAME,OBJECT_ID,EPOCH,MEAN_MOTION,ECCENTRICITY,INCLINATION,RA_OF_ASC_NODE,ARG_OF_PERICENTER,MEAN_ANOMALY,EPHEMERIS_TYPE,CLASSIFICATION_TYPE,NORAD_CAT_ID,ELEMENT_SET_NO,REV_AT_EPOCH,BSTAR,MEAN_MOTION_DOT,MEAN_MOTION_DDOT
HAIYANG-2D,2021-043A,2026-06-12T07:17:57.731424,13.83375734,.00114011,65.9996,316.8574,269.5884,90.3878,0,U,48621,999,25587,-.21886287E-4,-.105E-5,0
2021-050D,2021-050D,2026-06-12T06:39:44.774784,15.23282366,.00040363,97.3340,239.4247,286.4628,73.6165,0,U,48843,999,27821,.23102886E-3,.541E-4,0
TYVAK-0173,2021-059P,2026-06-12T04:49:18.555744,14.81875444,.00105019,96.0086,240.7969,54.4865,305.7331,0,U,48892,999,26750,.21389811E-3,.1661E-4,0
MANDRAKE 2 ABLE,2021-059AE,2026-06-12T02:09:28.370880,15.54786782,.00048983,97.7035,352.4867,24.4272,335.7212,0,U,48907,999,27633,.29946545E-3,.19843E-3,0
MANDRAKE 2 BAKER,2021-059AF,2026-06-12T03:57:14.644512,15.59312225,.0003351,97.7004,355.4037,26.4419,333.7006,0,U,48908,999,27651,.358901E-3,.28188E-3,0
PACE-1,2021-059AG,2026-06-12T06:37:13.518624,15.79022279,.00007755,97.6766,0.8663,300.2810,59.8379,0,U,48909,999,27702,.5468394E-3,.97533E-3,0
YAM-3,2021-059AN,2026-06-12T06:50:52.870560,15.48450066,.00054456,97.6991,349.9210,27.1649,332.9885,0,U,48915,999,27623,.23833978E-3,.12562E-3,0
FARADAY_PHOENIX,2021-059AX,2026-06-12T01:53:53.215296,15.77162162,.00026875,97.6816,0.5452,328.1615,31.9487,0,U,48924,999,27685,.77316595E-3,.127469E-2,0
DEMO8 (TENZING),2021-059CA,2026-06-12T02:13:49.379232,15.54803460,.00067176,97.7026,356.1257,14.6950,345.4497,0,U,48951,999,27651,.28376415E-3,.18814E-3,0
NAPA-2,2021-059CN,2026-06-12T06:01:57.999072,15.97574649,.0002918,97.6689,1.7349,243.6052,116.4925,0,U,48963,999,27702,.76008864E-3,.335825E-2,.48085887E-4
FENGYUN 3E,2021-062A,2026-06-12T06:27:22.470912,14.19905212,.00027929,98.7494,166.7316,93.5108,266.6388,0,U,49008,999,25588,.21128636E-3,.405E-5,0
ISS (NAUKA),2021-066A,2026-06-11T23:08:55.780800,15.49182446,.00049318,51.6334,325.9414,175.6343,184.4689,0,U,49044,999,57076,.15344347E-3,.8067E-4,0
STARLINK-3100,2021-082Q,2026-06-12T02:24:02.820096,14.98337429,.00031575,70.0002,56.4058,270.2152,89.8645,0,U,49144,999,26012,-.20089297E-3,-.249E-4,0
CUTE,2021-088D,2026-06-12T05:21:41.169888,15.91737915,.00078536,97.4165,262.0421,237.6294,122.4220,0,U,49263,999,26176,.58086598E-3,.188504E-2,.15266477E-4
2021-091B,2021-091B,2026-06-12T05:59:35.579040,15.18529295,.00148838,97.4476,350.9000,60.9392,299.3331,0,U,49316,999,25823,.12460153E-3,.251E-4,0
SDGSAT 1,2021-100A,2026-06-12T07:02:13.679232,15.19903517,.00067449,97.2643,210.4245,320.6749,39.3996,0,U,49387,999,25517,.12175098E-3,.255E-4,0
TEIKYOSAT-4 (OORURI),2021-102B,2026-06-12T01:59:04.545600,15.09490953,.00108015,97.3672,192.7646,316.5940,43.4438,0,U,49396,999,25195,.11104936E-3,.172E-4,0
Z-SAT,2021-102E,2026-06-12T06:07:05.158848,15.18227284,.00148644,97.3331,198.7275,264.0038,95.9502,0,U,49399,999,25269,.20874668E-3,.4217E-4,0
HIBARI,2021-102F,2026-06-12T02:32:58.544160,15.31626124,.00108495,97.3245,209.0673,210.1983,149.8634,0,U,49400,999,25341,.30830782E-3,.9356E-4,0
KOSEN-1,2021-102H,2026-06-12T02:17:02.332896,15.26764823,.00126724,97.3194,205.3513,219.4221,140.6097,0,U,49402,999,25324,.24961029E-3,.651E-4,0
GLOBAL-14,2021-106A,2026-06-12T03:01:31.471680,15.50352851,.00166049,42.0056,321.1536,343.9678,16.0639,0,U,49469,999,25734,.43921254E-3,.25484E-3,0
GAOFEN-3 02,2021-109A,2026-06-12T06:17:02.367744,14.42216953,.00032637,98.4091,171.4285,29.2835,330.8537,0,U,49495,999,23960,.69763632E-4,.186E-5,0
GLOBAL-12,2021-115BA,2026-06-12T01:19:36.808896,15.53268584,.00033779,53.1955,69.2105,59.2275,300.9069,0,U,49772,999,25510,.49303237E-3,.31244E-3,0
GLOBAL-13,2021-115BB,2026-06-12T01:51:07.767936,15.45847046,.0004105,53.1976,78.8751,98.3212,261.8261,0,U,49773,999,25497,.38295004E-3,.185E-3,0
GLOBAL-17,2021-120A,2026-06-12T01:40:24.260736,15.51988435,.00149377,41.9943,79.7812,223.5681,136.3984,0,U,49949,999,25410,.43706556E-3,.26879E-3,0
GLOBAL-16,2021-120B,2026-06-12T01:49:54.416064,15.49934386,.0012775,41.9944,83.3781,215.8466,144.1521,0,U,49950,999,25405,.41126171E-3,.23428E-3,0
XW-3 (CAS-9),2021-131B,2026-06-12T06:21:08.370144,14.41352915,.0005289,98.4974,255.6807,107.7226,252.4541,0,U,50466,999,23440,.13760694E-3,.401E-5,0
ION SCV-004,2022-002K,2026-06-12T06:22:24.960288,15.30404636,.00077043,97.2844,221.0164,24.9373,335.2239,0,U,50993,999,24454,.18387227E-3,.5335E-4,0
ETV-A1,2022-002CE,2026-06-12T06:32:10.775616,15.40581170,.00050864,97.2887,229.5917,21.3601,338.7857,0,U,51060,999,24508,.28937036E-3,.11693E-3,0
BRO-5,2022-002CF,2026-06-12T06:30:22.823136,15.47101089,.00040341,97.3006,236.8970,353.5756,6.5441,0,U,51061,999,24549,.59244606E-3,.30003E-3,0
